ADRAS-J                 
1 58992U 24034A   24214.84677198  .00004086  00000+0  37769-3 0  9991
2 58992  98.2145 189.9614 0041918 258.1790 101.4726 14.94529138 24684
